ONEWEB-0324             
1 49193U 21083H   22043.16763905  .00000093  00000+0  20252-3 0  9993
2 49193  87.9105 290.7111 0002150  72.1077 288.0290 13.18685173 22254
ONEWEB-0325             
1 49194U 21083J   22043.17072172 -.00000430  00000+0 -11246-2 0  9993
2 49194  87.9101 290.5985 0002117 112.4874 247.6483 13.18685807 22264
ONEWEB-0326             
1 49195U 21083K   22043.18156853  .00000058  00000+0  11523-3 0  9997
2 49195  87.9102 290.6910 0002020  82.3725 277.7637 13.18684090 22255
ONEWEB-0327             
1 49196U 21083L   22043.25001157 -.00030560  00000+0 -77784-1 0  9994
2 49196  87.9118 290.6329 0002697  61.5138 336.8048 13.18706237 22288
ONEWEB-0328             
1 49197U 21083M   22043.17444350 -.00396907  00000+0 -13688+0 0  9993
2 49197  87.6248 276.8645 0020782 121.5486 238.7746 14.38350121 23696
ONEWEB-0331             
1 49198U 21083N   22043.17692480  .00000080  00000+0  17055-3 0  9991
2 49198  87.9114 290.6933 0002010  74.3485 285.7869 13.18683866 22266
ONEWEB-0333             
1 49199U 21083P   22042.91668981 -.01231186  00000+0 -42865+0 0  9991
2 49199  87.6352 276.9509 0019234 126.0483  94.7052 14.38839080 23664
ONEWEB-0334             
1 49200U 21083Q   22042.91668981  .00011172  00000+0  11637-2 0  9998
2 49200  87.2001 274.9414 0004941  65.6876 272.8512 14.89714350 23747
ONEWEB-0335             
1 49201U 21083R   22042.91668981 -.01403646  00000+0 -49297+0 0  9993
2 49201  87.6358 276.9788 0021694 118.2977 193.7489 14.38266102 23659
ONEWEB-0336             
1 49202U 21083S   22043.19012006 -.00386790  00000+0 -12933+0 0  9992
2 49202  87.6226 276.8617 0022832 106.1949 254.1766 14.39800005 23707
ONEWEB-0337             
1 49203U 21083T   22043.17673593 -.00351185  00000+0 -11417+0 0  9991
2 49203  87.6197 276.8644 0022636 112.0534 248.3074 14.40970985 23707
ONEWEB-0338             
1 49204U 21083U   22042.91668981  .00010431  00000+0  10860-2 0  9996
2 49204  87.2061 275.0516 0005205  88.2132 145.4849 14.89729583 23744
ONEWEB-0339             
1 49205U 21083V   22043.18029110 -.00367249  00000+0 -12192+0 0  9993
2 49205  87.6313 276.8597 0021161 116.1113 244.2268 14.40053680 23700
ONEWEB-0340             
1 49206U 21083W   22043.24041673 -.00000010  00000+0 -58392-4 0  9996
2 49206  87.9106 290.6883 0001876  84.2181 275.9165 13.18685456 22248
ONEWEB-0341             
1 49207U 21083X   22043.17228607  .00000088  00000+0  19040-3 0  9992
2 49207  87.9126 290.5934 0002520 104.8086 255.3326 13.18685464 22258
ONEWEB-0342             
1 49208U 21083Y   22042.91668981  .00011674  00000+0  12153-2 0  9997
2 49208  87.2019 274.9814 0005390  87.5082 309.8104 14.89738184 23748
ONEWEB-0343             
1 49209U 21083Z   22043.16919073  .00000086  00000+0  18564-3 0  9995
2 49209  87.9118 290.6497 0002452 117.2680 242.8702 13.18685761 22303
ONEWEB-0344             
1 49210U 21083AA  22042.91668981 -.01417417  00000+0 -50353+0 0  9999
2 49210  87.6361 276.9233 0021539 114.6016 197.0559 14.37727788 23656
ONEWEB-0345             
1 49211U 21083AB  22042.91668981 -.01392750  00000+0 -49455+0 0  9993
2 49211  87.6401 276.9619 0021426 116.1742 213.7115 14.37692156 23652
ONEWEB-0346             
1 49212U 21083AC  22042.56838117  .00000273  00000+0  65913-3 0  9999
2 49212  87.9116 290.7642 0002205  70.1968 289.9402 13.18686177 20871
ONEWEB-0348             
1 49213U 21083AD  22042.91668981  .00011347  00000+0  11818-2 0  9997
2 49213  87.2046 275.0294 0005068  80.2058 279.1577 14.89720222 23740
ONEWEB-0350             
1 49214U 21083AE  22042.91668981 -.01398443  00000+0 -46383+0 0  9998
2 49214  87.6327 276.9177 0019147 121.0174 122.9994 14.41136666 23663
ONEWEB-0351             
1 49215U 21083AF  22042.91668981  .00009573  00000+0  99684-3 0  9995
2 49215  87.1976 274.9016 0004683  72.9964  53.8535 14.89720952 23762
ONEWEB-0352             
1 49216U 21083AG  22042.91668981 -.00851792  00000+0 -15103+0 0  9996
2 49216  87.5769 276.7680 0020538 116.2279 104.7447 14.70078917 23688
ONEWEB-0354             
1 49217U 21083AH  22042.57787942  .00001748  00000+0  17973-3 0  9995
2 49217  87.2025 275.1101 0004295  75.2257 284.9446 14.89737052 22416
ONEWEB-0355             
1 49218U 21083AJ  22042.91668981 -.01419831  00000+0 -51129+0 0  9991
2 49218  87.6342 276.9274 0019673 123.3256 339.6945 14.37072839 23661
ONEWEB-0357             
1 49219U 21083AK  22042.91668981  .00010673  00000+0  11111-2 0  9990
2 49219  87.2028 274.9881 0005525  89.7485 223.7513 14.89735540 23746
ONEWEB-0332             
1 49279U 21090A   22042.91668981  .00050314  00000+0  53749-2 0  9993
2 49279  87.2247 250.9353 0001590 218.9903 258.4501 14.88550861 18052
ONEWEB-0347             
1 49280U 21090B   22042.91668981  .00051213  00000+0  54802-2 0  9995
2 49280  87.1994 250.9910 0001895 135.9090  19.7279 14.88477027 18045
ONEWEB-0349             
1 49281U 21090C   22042.91668981  .00052477  00000+0  52658-2 0  9996
2 49281  87.2019 250.8462 0001997 162.2868  29.9485 14.91063865 19379
ONEWEB-0353             
1 49282U 21090D   22042.91668981  .00050489  00000+0  54196-2 0  9997
2 49282  87.2256 250.9428 0002950 160.3404 326.9540 14.88352746 19334
ONEWEB-0356             
1 49283U 21090E   22042.91668981  .00050044  00000+0  50270-2 0  9994
2 49283  87.2017 250.8523 0001197 154.8489 165.9612 14.91034789 19360
ONEWEB-0358             
1 49284U 21090F   22042.91668981  .00050417  00000+0  53916-2 0  9999
2 49284  87.2248 250.9309 0001669 119.6225   3.1331 14.88506691 19331
ONEWEB-0359             
1 49285U 21090G   22042.91668981  .00012406  00000+0  13296-2 0  9993
2 49285  87.2007 250.9891 0001957 128.4254  94.4615 14.88574270 19326
ONEWEB-0360             
1 49286U 21090H   22042.59236035  .00001391  00000+0  13787-3 0  9996
2 49286  87.2023 250.9807 0002947 248.1691 111.9224 14.91060105 18036
ONEWEB-0361             
1 49287U 21090J   22042.91668981  .00049966  00000+0  50159-2 0  9995
2 49287  87.2018 250.8557 0001265 168.1336 224.1291 14.91061660 19366
ONEWEB-0362             
1 49288U 21090K   22043.25001157  .00000013  00000+0  00000+0 0  9997
2 49288  87.9399 260.1837 0001576  85.0916 295.0011 13.24250364 18550
ONEWEB-0363             
1 49289U 21090L   22042.59623446  .00001374  00000+0  13611-3 0  9992
2 49289  87.2038 251.0039 0002722 130.7261 229.4203 14.91058056 19310
ONEWEB-0364             
1 49290U 21090M   22043.21268409  .00030130  00000+0  32175-2 0  9995
2 49290  87.2112 250.9018 0003279  96.8790 263.2810 14.88666658 19361
ONEWEB-0365             
1 49291U 21090N   22042.91668981  .00026635  00000+0  66019-1 0  9999
2 49291  87.9257 260.2316 0000953 103.4649 112.7953 13.20016844 18487
ONEWEB-0366             
1 49292U 21090P   22042.56738567 -.00011273  00000+0 -12225-2 0  9994
2 49292  87.2040 251.0867 0001055 115.6975 244.4361 14.88424805 17997
ONEWEB-0367             
1 49293U 21090Q   22042.60029061  .00001356  00000+0  13417-3 0  9996
2 49293  87.2059 251.0329 0002006 241.2841 118.8186 14.91098224 18026
ONEWEB-0368             
1 49294U 21090R   22042.91668981  .00050335  00000+0  53842-2 0  9997
2 49294  87.2318 251.0313 0001276 226.9970  60.5851 14.88497495 19335
ONEWEB-0369             
1 49295U 21090S   22042.83334491 -.00016858  00000+0 -42075-1 0  9994
2 49295  87.9230 260.2006 0002338  79.8030 115.9377 13.19956815 18469
ONEWEB-0370             
1 49296U 21090T   22042.91668981  .00050047  00000+0  50281-2 0  9993
2 49296  87.2000 250.8271 0000729 168.7315 235.5636 14.91028416 19380
ONEWEB-0371             
1 49297U 21090U   22042.91668981  .00027020  00000+0  67272-1 0  9996
2 49297  87.9259 260.1274 0001707  89.3102 116.1698 13.19713957 18516
ONEWEB-0372             
1 49298U 21090V   22042.91668981  .00051843  00000+0  52030-2 0  9994
2 49298  87.2009 250.8287 0002543 249.5060 272.8891 14.91059816 19373
ONEWEB-0373             
1 49299U 21090W   22042.91668981  .00049415  00000+0  52906-2 0  9999
2 49299  87.2268 250.9670 0001060 223.3259 155.1099 14.88465840 19334
ONEWEB-0374             
1 49300U 21090X   22042.91668981  .00049962  00000+0  53469-2 0  9994
2 49300  87.2297 251.0132 0000433 239.5532 220.8454 14.88479930 19318
ONEWEB-0375             
1 49301U 21090Y   22042.91668981  .00051669  00000+0  55253-2 0  9995
2 49301  87.2225 250.9328 0001153 197.0003 331.7434 14.88501786 19333
ONEWEB-0376             
1 49302U 21090Z   22042.55596358  .00000057  00000+0  10022-3 0  9995
2 49302  87.9465 260.2608 0001411  89.6634 270.4664 13.26169830 17170
ONEWEB-0377             
1 49303U 21090AA  22042.91668981  .00052071  00000+0  55686-2 0  9995
2 49303  87.2293 251.0098 0002516 129.0947 104.4456 14.88495896 19313
ONEWEB-0378             
1 49304U 21090AB  22042.60680451  .00001546  00000+0  15345-3 0  9998
2 49304  87.1962 250.8732 0001824 224.1902 135.9181 14.91080836 18059
ONEWEB-0379             
1 49305U 21090AC  22042.91668981  .00051248  00000+0  54796-2 0  9993
2 49305  87.2288 250.9848 0000384  99.8328 160.4045 14.88509207 19338
ONEWEB-0380             
1 49306U 21090AD  22042.91668981  .00026553  00000+0  65823-1 0  9997
2 49306  87.9264 260.2094 0001230  89.3201 133.3489 13.20010425 18482
ONEWEB-0381             
1 49307U 21090AE  22042.91668981  .00049599  00000+0  49781-2 0  9999
2 49307  87.2049 250.8951 0001116 137.0186 230.5381 14.91071150 19360
ONEWEB-0382             
1 49308U 21090AF  22042.58894275  .00001483  00000+0  14721-3 0  9997
2 49308  87.1998 250.9191 0001366 162.5112 197.6163 14.91055638 19330
ONEWEB-0383             
1 49309U 21090AG  22042.91668981  .00052333  00000+0  55735-2 0  9997
2 49309  87.2271 250.9667 0001021 190.3858  17.0168 14.88664180 19343
ONEWEB-0384             
1 49310U 21090AH  22042.59176636  .00001267  00000+0  12536-3 0  9997
2 49310  87.1991 250.9260 0000665 186.3596 173.7624 14.91064190 19334
